GOMX-1                  
1 39430U 13066Q   26177.78699068  .00001913  00000+0  29101-3 0  9990
2 39430  97.6486  17.6438 0129859  47.0653 314.1362 14.69491428671326
CUBEBUG-2 (LO-74)       
1 39440U 13066AA  26177.77591205  .00004220  00000+0  39049-3 0  9990
2 39440  97.8903 126.7948 0057450 357.3533   2.7374 14.93836496678428
NEE-02 KRYSAOR          
1 39441U 13066AB  26177.76677493  .00002672  00000+0  29517-3 0  9992
2 39441  97.8892 116.9130 0067124  39.4303 321.1770 14.86659035677625
FUNCUBE-1 (AO-73)       
1 39444U 13066AE  26177.66821197  .00007529  00000+0  46531-3 0  9997
2 39444  97.8272 149.3122 0036613 168.7354 191.4703 15.09595526681092
UWE-3                   
1 39446U 13066AG  26176.83787144  .00004431  00000+0  38106-3 0  9998
2 39446  97.8708 132.9703 0046807 291.8607  67.7640 14.97092153678877
SMDC ONE 2.4            
1 39469U 13072H   26177.55294853  .00010809  00000+0  40766-3 0  9991
2 39469 120.4939  28.2489 0146556  28.9495 331.9615 15.18359041119251
COSMOS 2488 (RODNIK-S 7)
1 39483U 13076A   26177.69732164  .00000099  00000+0  64074-3 0  9996
2 39483  82.4832 162.7696 0020892  75.6758 284.6639 12.42906276567074
COSMOS 2489 (RODNIK-S 8)
1 39484U 13076B   26177.75322102  .00000012  00000+0  17445-4 0  9997
2 39484  82.4868 164.1167 0022700  75.4992 284.8604 12.42879694567135
COSMOS 2490 (RODNIK-S 9)
1 39485U 13076C   26177.72512493  .00000004  00000+0 -40772-4 0  9990
2 39485  82.4815 162.1975 0022866  90.3246 270.0453 12.42878554567069
KAZEOSAT 1              
1 39731U 14024A   26177.73552951  .00000406  00000+0  13657-3 0  9998
2 39731  98.3206 249.9455 0001225  73.6643 286.4682 14.42084357639934
COSMOS 2496 (RODNIK-S *)
1 39761U 14028A   26177.76312950  .00000073  00000+0  45638-3 0  9995
2 39761  82.4452 102.7338 0021324  59.1164 301.2009 12.42879218548708
COSMOS 2497 (RODNIK-S *)
1 39762U 14028B   26177.73828877 -.00000015  00000+0 -17821-3 0  9994
2 39762  82.4500 104.4428 0021822  54.4574 305.8536 12.42894634548702
COSMOS 2498 (RODNIK-S *)
1 39763U 14028C   26177.79572072  .00000014  00000+0  29555-4 0  9999
2 39763  82.4461 102.8898 0022553  53.9050 306.4114 12.42980553548746
HODOYOSHI-4             
1 40011U 14033B   26177.78382458  .00001421  00000+0  15937-3 0  9990
2 40011  97.5454   2.1432 0022103 274.5794  85.2899 14.88147235650230
UNISAT-6                
1 40012U 14033C   26177.68044105  .00002478  00000+0  26905-3 0  9994
2 40012  97.7883 330.2257 0045701  38.7415 321.7064 14.88289087647575
DEIMOS-2                
1 40013U 14033D   26177.69541780  .00000986  00000+0  98198-4 0  9993
2 40013  97.5829  51.8503 0001220  55.1679 304.9656 14.93750188639142
BUGSAT-1 (TITA)         
1 40014U 14033E   26177.74126961  .00007586  00000+0  39822-3 0  9991
2 40014  98.0428 270.8491 0028658 146.2577 214.0485 15.15689264657283
SAUDISAT 4              
1 40016U 14033G   26177.65458130  .00000569  00000+0  81509-4 0  9993
2 40016  97.7593 323.4622 0045743  44.0198 316.4642 14.79555781647470
APRIZESAT 9             
1 40018U 14033J   26177.64210676  .00000705  00000+0  11067-3 0  9998
2 40018  97.9070 310.6101 0066439 168.7380 191.5334 14.74227149644955
BRITE-CA1 (TORONTO)     
1 40020U 14033L   26177.61794559  .00000796  00000+0  12727-3 0  9999
2 40020  97.9749 306.3725 0077328 246.2869 113.0213 14.72690189643600
DUCHIFAT-1              
1 40021U 14033M   26177.60974735  .00111371  00000+0  10572-2 0  9992
2 40021  98.0448 238.1065 0001317 100.0937 260.0470 15.66536146657223
NANOSATC-BR1            
1 40024U 14033Q   26177.35208476  .00019164  00000+0  62707-3 0  9994
2 40024  98.0721 210.5531 0005038 140.2235 219.9374 15.31739274655383
